{"type": "FeatureCollection", "features": [ {"type": "Feature", "properties": {"norad_id": 41469, "name": "IRNSS-1G", "group": "gnss", "lat": -0.6439137924837817, "lon": 93.8187486043766, "alt_km": 35774.38989999033, "timestamp": "2025-12-18T15:47:11.464960+00:00", "meta": {"OBJECT_NAME": "IRNSS-1G", "OBJECT_ID": "2016-027A", "EPOCH": "2025-12-18T05:21:03.928896", "MEAN_MOTION": 1.00277519, "ECCENTRICITY": 0.00025804, "INCLINATION": 4.7475, "RA_OF_ASC_NODE": 101.9561, "ARG_OF_PERICENTER": 331.2194, "MEAN_ANOMALY": 223.6421, "EPHEMERIS_TYPE": 0, "CLASSIFICATION_TYPE": "U", "NORAD_CAT_ID": 41469, "ELEMENT_SET_NO": 999, "REV_AT_EPOCH": 3536, "BSTAR": 0, "MEAN_MOTION_DOT": -3.13e-06, "MEAN_MOTION_DDOT": 0}, "tle": {"line1": "1 41469U 16027A   25352.22296214 -.00000313  00000+0  00000+0 0  9991", "line2": "2 41469   4.7475 101.9561 0002580 331.2194 223.6421  1.00277519 35363"}}, "geometry": {"type": "Point", "coordinates": [93.8187486043766, -0.6439137924837817]}}, {"type": "Feature", "properties": {"norad_id": 41549, "name": "GSAT0211 (GALILEO 14)", "group": "gnss", "lat": -28.3195895219558, "lon": -155.36278665037335, "alt_km": 23218.48628676604, "timestamp": "2025-12-18T15:47:11.464972+00:00", "meta": {"OBJECT_NAME": "GSAT0211 (GALILEO 14)", "OBJECT_ID": "2016-030A", "EPOCH": "2025-12-14T00:32:28.498848", "MEAN_MOTION": 1.70473201, "ECCENTRICITY": 0.000407, "INCLINATION": 55.1518, "RA_OF_ASC_NODE": 226.7881, "ARG_OF_PERICENTER": 16.5595, "MEAN_ANOMALY": 343.5367, "EPHEMERIS_TYPE": 0, "CLASSIFICATION_TYPE": "U", "NORAD_CAT_ID": 41549, "ELEMENT_SET_NO": 999, "REV_AT_EPOCH": 5951, "BSTAR": 0, "MEAN_MOTION_DOT": 2.8e-07, "MEAN_MOTION_DDOT": 0}, "tle": {"line1": "1 41549U 16030A   25348.02255207  .00000028  00000+0  00000+0 0  9996", "line2": "2 41549  55.1518 226.7881 0004070  16.5595 343.5367  1.70473201 59512"}}, "geometry": {"type": "Point", "coordinates": [-155.36278665037335, -28.3195895219558]}}, {"type": "Feature", "properties": {"norad_id": 41550, "name": "GSAT0210 (GALILEO 13)", "group": "gnss", "lat": 10.8238510408647, "lon": 39.02134912454505, "alt_km": 23220.025392819625, "timestamp": "2025-12-18T15:47:11.464983+00:00", "meta": {"OBJECT_NAME": "GSAT0210 (GALILEO 13)", "OBJECT_ID": "2016-030B", "EPOCH": "2025-12-17T05:06:34.590240", "MEAN_MOTION": 1.70473746, "ECCENTRICITY": 9.221e-05, "INCLINATION": 55.1502, "RA_OF_ASC_NODE": 226.6984, "ARG_OF_PERICENTER": 234.8094, "MEAN_ANOMALY": 125.2822, "EPHEMERIS_TYPE": 0, "CLASSIFICATION_TYPE": "U", "NORAD_CAT_ID": 41550, "ELEMENT_SET_NO": 999, "REV_AT_EPOCH": 5956, "BSTAR": 0, "MEAN_MOTION_DOT": 5.5e-07, "MEAN_MOTION_DDOT": 0}, "tle": {"line1": "1 41550U 16030B   25351.21290035  .00000055  00000+0  00000+0 0  9991", "line2": "2 41550  55.1502 226.6984 0000922 234.8094 125.2822  1.70473746 59561"}}, "geometry": {"type": "Point", "coordinates": [39.02134912454505, 10.8238510408647]}}, {"type": "Feature", "properties": {"norad_id": 41586, "name": "BEIDOU-2 G7 (C03)", "group": "gnss", "lat": 0.24068934156530936, "lon": 74.75786528861562, "alt_km": 35764.27973211906, "timestamp": "2025-12-18T15:47:11.464995+00:00", "meta": {"OBJECT_NAME": "BEIDOU-2 G7 (C03)", "OBJECT_ID": "2016-037A", "EPOCH": "2025-12-18T01:50:09.134304", "MEAN_MOTION": 1.00272738, "ECCENTRICITY": 0.0005106, "INCLINATION": 1.7698, "RA_OF_ASC_NODE": 67.8228, "ARG_OF_PERICENTER": 3.2684, "MEAN_ANOMALY": 153.8419, "EPHEMERIS_TYPE": 0, "CLASSIFICATION_TYPE": "U", "NORAD_CAT_ID": 41586, "ELEMENT_SET_NO": 999, "REV_AT_EPOCH": 507, "BSTAR": 0, "MEAN_MOTION_DOT": -3.3e-06, "MEAN_MOTION_DDOT": 0}, "tle": {"line1": "1 41586U 16037A   25352.07649461 -.00000330  00000+0  00000+0 0  9990", "line2": "2 41586   1.7698  67.8228 0005106   3.2684 153.8419  1.00272738  5078"}}, "geometry": {"type": "Point", "coordinates": [74.75786528861562, 0.24068934156530936]}}, {"type": "Feature", "properties": {"norad_id": 41589, "name": "EUTELSAT 117 WEST B (WAAS/PRN 131)", "group": "gnss", "lat": 0.01035209365788218, "lon": -152.6880180289833, "alt_km": 35784.62902005286, "timestamp": "2025-12-18T15:47:11.465009+00:00", "meta": {"OBJECT_NAME": "EUTELSAT 117 WEST B (WAAS/PRN 131)", "OBJECT_ID": "2016-038B", "EPOCH": "2025-12-17T21:19:49.567296", "MEAN_MOTION": 1.00271876, "ECCENTRICITY": 3.601e-05, "INCLINATION": 0.0113, "RA_OF_ASC_NODE": 157.4202, "ARG_OF_PERICENTER": 73.0441, "MEAN_ANOMALY": 59.2611, "EPHEMERIS_TYPE": 0, "CLASSIFICATION_TYPE": "U", "NORAD_CAT_ID": 41589, "ELEMENT_SET_NO": 999, "REV_AT_EPOCH": 3484, "BSTAR": 0, "MEAN_MOTION_DOT": 1.3e-07, "MEAN_MOTION_DDOT": 0}, "tle": {"line1": "1 41589U 16038B   25351.88876814  .00000013  00000+0  00000+0 0  9993", "line2": "2 41589   0.0113 157.4202 0000360  73.0441  59.2611  1.00271876 34848"}}, "geometry": {"type": "Point", "coordinates": [-152.6880180289833, 0.01035209365788218]}}, {"type": "Feature", "properties": {"norad_id": 41859, "name": "GSAT0207 (GALILEO 15)", "group": "gnss", "lat": -3.284543997387723, "lon": 103.80698579573769, "alt_km": 23217.322800796628, "timestamp": "2025-12-18T15:47:11.465034+00:00", "meta": {"OBJECT_NAME": "GSAT0207 (GALILEO 15)", "OBJECT_ID": "2016-069A", "EPOCH": "2025-12-13T09:14:27.730752", "MEAN_MOTION": 1.70474447, "ECCENTRICITY": 0.00022423, "INCLINATION": 55.3826, "RA_OF_ASC_NODE": 106.2323, "ARG_OF_PERICENTER": 321.9482, "MEAN_ANOMALY": 38.0041, "EPHEMERIS_TYPE": 0, "CLASSIFICATION_TYPE": "U", "NORAD_CAT_ID": 41859, "ELEMENT_SET_NO": 999, "REV_AT_EPOCH": 5623, "BSTAR": 0, "MEAN_MOTION_DOT": 0, "MEAN_MOTION_DDOT": 0}, "tle": {"line1": "1 41859U 16069A   25347.38504318  .00000000  00000+0  00000+0 0  9990", "line2": "2 41859  55.3826 106.2323 0002242 321.9482  38.0041  1.70474447 56234"}}, "geometry": {"type": "Point", "coordinates": [103.80698579573769, -3.284543997387723]}}, {"type": "Feature", "properties": {"norad_id": 41860, "name": "GSAT0212 (GALILEO 16)", "group": "gnss", "lat": 55.184244669821275, "lon": -171.1576832455986, "alt_km": 23212.95368010482, "timestamp": "2025-12-18T15:47:11.465048+00:00", "meta": {"OBJECT_NAME": "GSAT0212 (GALILEO 16)", "OBJECT_ID": "2016-069B", "EPOCH": "2025-12-17T08:16:27.265728", "MEAN_MOTION": 1.70474701, "ECCENTRICITY": 0.00020752, "INCLINATION": 55.3825, "RA_OF_ASC_NODE": 106.1181, "ARG_OF_PERICENTER": 22.8873, "MEAN_ANOMALY": 337.0809, "EPHEMERIS_TYPE": 0, "CLASSIFICATION_TYPE": "U", "NORAD_CAT_ID": 41860, "ELEMENT_SET_NO": 999, "REV_AT_EPOCH": 5655, "BSTAR": 0, "MEAN_MOTION_DOT": -9e-08, "MEAN_MOTION_DDOT": 0}, "tle": {"line1": "1 41860U 16069B   25351.34476002 -.00000009  00000+0  00000+0 0  9991", "line2": "2 41860  55.3825 106.1181 0002075  22.8873 337.0809  1.70474701 56553"}}, "geometry": {"type": "Point", "coordinates": [-171.1576832455986, 55.184244669821275]}}, {"type": "Feature", "properties": {"norad_id": 41861, "name": "GSAT0213 (GALILEO 17)", "group": "gnss", "lat": -32.122863511602816, "lon": -48.25512276966173, "alt_km": 23222.55159800338, "timestamp": "2025-12-18T15:47:11.465062+00:00", "meta": {"OBJECT_NAME": "GSAT0213 (GALILEO 17)", "OBJECT_ID": "2016-069C", "EPOCH": "2025-12-17T17:05:43.808640", "MEAN_MOTION": 1.70474957, "ECCENTRICITY": 0.00025722, "INCLINATION": 55.385, "RA_OF_ASC_NODE": 106.1156, "ARG_OF_PERICENTER": 282.262, "MEAN_ANOMALY": 77.6683, "EPHEMERIS_TYPE": 0, "CLASSIFICATION_TYPE": "U", "NORAD_CAT_ID": 41861, "ELEMENT_SET_NO": 999, "REV_AT_EPOCH": 5642, "BSTAR": 0, "MEAN_MOTION_DOT": -9e-08, "MEAN_MOTION_DDOT": 0}, "tle": {"line1": "1 41861U 16069C   25351.71231260 -.00000009  00000+0  00000+0 0  9998", "line2": "2 41861  55.3850 106.1156 0002572 282.2620  77.6683  1.70474957 56424"}}, "geometry": {"type": "Point", "coordinates": [-48.25512276966173, -32.122863511602816]}}, {"type": "Feature", "properties": {"norad_id": 41862, "name": "GSAT0214 (GALILEO 18)", "group": "gnss", "lat": 38.63774934379122, "lon": -107.3964605404665, "alt_km": 23221.355986074013, "timestamp": "2025-12-18T15:47:11.465074+00:00", "meta": {"OBJECT_NAME": "GSAT0214 (GALILEO 18)", "OBJECT_ID": "2016-069D", "EPOCH": "2025-12-14T22:12:36.299232", "MEAN_MOTION": 1.70474813, "ECCENTRICITY": 0.00014239, "INCLINATION": 55.3815, "RA_OF_ASC_NODE": 106.1855, "ARG_OF_PERICENTER": 290.4821, "MEAN_ANOMALY": 69.4663, "EPHEMERIS_TYPE": 0, "CLASSIFICATION_TYPE": "U", "NORAD_CAT_ID": 41862, "ELEMENT_SET_NO": 999, "REV_AT_EPOCH": 5650, "BSTAR": 0, "MEAN_MOTION_DOT": -6e-08, "MEAN_MOTION_DDOT": 0}, "tle": {"line1": "1 41862U 16069D   25348.92542013 -.00000006  00000+0  00000+0 0  9996", "line2": "2 41862  55.3815 106.1855 0001423 290.4821  69.4663  1.70474813 56507"}}, "geometry": {"type": "Point", "coordinates": [-107.3964605404665, 38.63774934379122]}}, {"type": "Feature", "properties": {"norad_id": 42709, "name": "SES-15 (WAAS/PRN 133)", "group": "gnss", "lat": -0.02060496843924584, "lon": -164.88106532831668, "alt_km": 35787.59498763572, "timestamp": "2025-12-18T15:47:11.465086+00:00", "meta": {"OBJECT_NAME": "SES-15 (WAAS/PRN 133)", "OBJECT_ID": "2017-026A", "EPOCH": "2025-12-18T05:44:09.794400", "MEAN_MOTION": 1.0026876, "ECCENTRICITY": 2.01e-05, "INCLINATION": 0.0181, "RA_OF_ASC_NODE": 348.6685, "ARG_OF_PERICENTER": 351.9408, "MEAN_ANOMALY": 63.3573, "EPHEMERIS_TYPE": 0, "CLASSIFICATION_TYPE": "U", "NORAD_CAT_ID": 42709, "ELEMENT_SET_NO": 999, "REV_AT_EPOCH": 561, "BSTAR": 0, "MEAN_MOTION_DOT": 8.5e-07, "MEAN_MOTION_DDOT": 0}, "tle": {"line1": "1 42709U 17026A   25352.23900225  .00000085  00000+0  00000+0 0  9999", "line2": "2 42709   0.0181 348.6685 0000201 351.9408  63.3573  1.00268760  5616"}}, "geometry": {"type": "Point", "coordinates": [-164.88106532831668, -0.02060496843924584]}}]}